QIANFAN-18              
1 60396U 24140T   26064.88695430  .00000095  00000+0  12916-3 0  9991
2 60396  88.9720 290.3723 0013112 314.2162  45.7912 13.51003638 78758
QIANFAN-19              
1 61552U 24185A   26064.99779211  .00000603  00000+0  30776-3 0  9996
2 61552  88.9759  68.3812 0008594  50.0213 310.1727 14.14387285 81432
QIANFAN-20              
1 61553U 24185B   26064.99719425  .00000590  00000+0  33347-3 0  9990
2 61553  88.9757  68.7892 0007883  81.8162 278.3915 14.08933702 81212
QIANFAN-21              
1 61554U 24185C   26064.95708796  .00000754  00000+0  33011-3 0  9996
2 61554  88.9677  67.2123 0013023  91.9857 268.2826 14.22728196 81800
QIANFAN-22              
1 61555U 24185D   26064.93859881  .00000299  00000+0  24690-3 0  9994
2 61555  88.9740  70.1134 0008613  99.2866 260.9280 13.86338870 80466
QIANFAN-23              
1 61556U 24185E   26064.99709773  .00000669  00000+0  32964-3 0  9999
2 61556  88.9751  68.1518 0009534  57.8719 302.3393 14.16392470 81537
QIANFAN-24              
1 61557U 24185F   26064.95989733  .00000915  00000+0  39281-3 0  9995
2 61557  88.9735  67.4250 0010569  38.0829 322.1108 14.23932345 81867
QIANFAN-25              
1 61558U 24185G   26064.99266698  .00000526  00000+0  31257-3 0  9991
2 61558  88.9749  68.7480 0011905  64.5034 295.7378 14.05995261 81207
QIANFAN-26              
1 61559U 24185H   26064.97313601  .00000272  00000+0  25854-3 0  9991
2 61559  88.9746  70.7502 0007698 111.9137 248.2848 13.77861501 80131
QIANFAN-27              
1 61560U 24185J   26064.96049935  .00000618  00000+0  24609-3 0  9999
2 61560  88.9749  67.1677 0008618  31.4225 328.7482 14.27443336 82033
QIANFAN-28              
1 61561U 24185K   26064.96984003  .00001044  00000+0  41355-3 0  9995
2 61561  88.9764  67.1738 0008218  32.4783 327.6916 14.28212819 82058
QIANFAN-29              
1 61562U 24185L   26064.98444951  .00000189  00000+0  27350-3 0  9999
2 61562  88.9718  72.6917 0010405 158.7282 201.4304 13.51043697 79030
QIANFAN-30              
1 61563U 24185M   26064.94826554  .00000187  00000+0  27556-3 0  9995
2 61563  88.9738  72.2528 0008697 143.1556 217.0193 13.50018762 79290
QIANFAN-31              
1 61564U 24185N   26064.94381450  .00000214  00000+0  27954-3 0  9990
2 61564  88.9723  71.9226 0008364 134.6909 225.4929 13.58003122 79454
QIANFAN-32              
1 61565U 24185P   26064.94479889  .00000148  00000+0  21073-3 0  9997
2 61565  88.9782  72.4128 0009749 171.8012 188.3301 13.50763985 79276
QIANFAN-33              
1 61566U 24185Q   26064.94395488  .00000479  00000+0  33646-3 0  9996
2 61566  88.9737  69.5132 0009288  72.8146 287.4047 13.96623085 80776
QIANFAN-34              
1 61567U 24185R   26064.99612828  .00000527  00000+0  33436-3 0  9993
2 61567  88.9714  68.9604 0008297  76.2458 283.9645 14.02383257 81028
