[{"OBJECT_NAME":"QIANFAN-18","OBJECT_ID":"2024-140T","EPOCH":"2026-03-05T21:17:12.851520","MEAN_MOTION":13.51003638,"ECCENTRICITY":0.00131123,"INCLINATION":88.972,"RA_OF_ASC_NODE":290.3723,"ARG_OF_PERICENTER":314.2162,"MEAN_ANOMALY":45.7912,"EPHEMERIS_TYPE":0,"CLASSIFICATION_TYPE":"U","NORAD_CAT_ID":60396,"ELEMENT_SET_NO":999,"REV_AT_EPOCH":7875,"BSTAR":0.00012915786,"MEAN_MOTION_DOT":9.5e-7,"MEAN_MOTION_DDOT":0},{"OBJECT_NAME":"QIANFAN-19","OBJECT_ID":"2024-185A","EPOCH":"2026-03-05T23:56:49.238304","MEAN_MOTION":14.14387285,"ECCENTRICITY":0.00085942,"INCLINATION":88.9759,"RA_OF_ASC_NODE":68.3812,"ARG_OF_PERICENTER":50.0213,"MEAN_ANOMALY":310.1727,"EPHEMERIS_TYPE":0,"CLASSIFICATION_TYPE":"U","NORAD_CAT_ID":61552,"ELEMENT_SET_NO":999,"REV_AT_EPOCH":8143,"BSTAR":0.00030775536,"MEAN_MOTION_DOT":6.03e-6,"MEAN_MOTION_DDOT":0},{"OBJECT_NAME":"QIANFAN-20","OBJECT_ID":"2024-185B","EPOCH":"2026-03-05T23:55:57.583200","MEAN_MOTION":14.08933702,"ECCENTRICITY":0.00078835,"INCLINATION":88.9757,"RA_OF_ASC_NODE":68.7892,"ARG_OF_PERICENTER":81.8162,"MEAN_ANOMALY":278.3915,"EPHEMERIS_TYPE":0,"CLASSIFICATION_TYPE":"U","NORAD_CAT_ID":61553,"ELEMENT_SET_NO":999,"REV_AT_EPOCH":8121,"BSTAR":0.00033346935,"MEAN_MOTION_DOT":5.9e-6,"MEAN_MOTION_DDOT":0},{"OBJECT_NAME":"QIANFAN-21","OBJECT_ID":"2024-185C","EPOCH":"2026-03-05T22:58:12.399744","MEAN_MOTION":14.22728196,"ECCENTRICITY":0.00130231,"INCLINATION":88.9677,"RA_OF_ASC_NODE":67.2123,"ARG_OF_PERICENTER":91.9857,"MEAN_ANOMALY":268.2826,"EPHEMERIS_TYPE":0,"CLASSIFICATION_TYPE":"U","NORAD_CAT_ID":61554,"ELEMENT_SET_NO":999,"REV_AT_EPOCH":8180,"BSTAR":0.00033011156,"MEAN_MOTION_DOT":7.54e-6,"MEAN_MOTION_DDOT":0},{"OBJECT_NAME":"QIANFAN-22","OBJECT_ID":"2024-185D","EPOCH":"2026-03-05T22:31:34.937184","MEAN_MOTION":13.8633887,"ECCENTRICITY":0.00086134,"INCLINATION":88.974,"RA_OF_ASC_NODE":70.1134,"ARG_OF_PERICENTER":99.2866,"MEAN_ANOMALY":260.928,"EPHEMERIS_TYPE":0,"CLASSIFICATION_TYPE":"U","NORAD_CAT_ID":61555,"ELEMENT_SET_NO":999,"REV_AT_EPOCH":8046,"BSTAR":0.00024690191,"MEAN_MOTION_DOT":2.99e-6,"MEAN_MOTION_DDOT":0},{"OBJECT_NAME":"QIANFAN-23","OBJECT_ID":"2024-185E","EPOCH":"2026-03-05T23:55:49.243872","MEAN_MOTION":14.1639247,"ECCENTRICITY":0.00095345,"INCLINATION":88.9751,"RA_OF_ASC_NODE":68.1518,"ARG_OF_PERICENTER":57.8719,"MEAN_ANOMALY":302.3393,"EPHEMERIS_TYPE":0,"CLASSIFICATION_TYPE":"U","NORAD_CAT_ID":61556,"ELEMENT_SET_NO":999,"REV_AT_EPOCH":8153,"BSTAR":0.00032963759,"MEAN_MOTION_DOT":6.69e-6,"MEAN_MOTION_DDOT":0},{"OBJECT_NAME":"QIANFAN-24","OBJECT_ID":"2024-185F","EPOCH":"2026-03-05T23:02:15.129312","MEAN_MOTION":14.23932345,"ECCENTRICITY":0.00105696,"INCLINATION":88.9735,"RA_OF_ASC_NODE":67.425,"ARG_OF_PERICENTER":38.0829,"MEAN_ANOMALY":322.1108,"EPHEMERIS_TYPE":0,"CLASSIFICATION_TYPE":"U","NORAD_CAT_ID":61557,"ELEMENT_SET_NO":999,"REV_AT_EPOCH":8186,"BSTAR":0.00039281485,"MEAN_MOTION_DOT":9.15e-6,"MEAN_MOTION_DDOT":0},{"OBJECT_NAME":"QIANFAN-25","OBJECT_ID":"2024-185G","EPOCH":"2026-03-05T23:49:26.427072","MEAN_MOTION":14.05995261,"ECCENTRICITY":0.00119052,"INCLINATION":88.9749,"RA_OF_ASC_NODE":68.748,"ARG_OF_PERICENTER":64.5034,"MEAN_ANOMALY":295.7378,"EPHEMERIS_TYPE":0,"CLASSIFICATION_TYPE":"U","NORAD_CAT_ID":61558,"ELEMENT_SET_NO":999,"REV_AT_EPOCH":8120,"BSTAR":0.00031256665,"MEAN_MOTION_DOT":5.26e-6,"MEAN_MOTION_DDOT":0},{"OBJECT_NAME":"QIANFAN-26","OBJECT_ID":"2024-185H","EPOCH":"2026-03-05T23:21:18.951264","MEAN_MOTION":13.77861501,"ECCENTRICITY":0.00076987,"INCLINATION":88.9746,"RA_OF_ASC_NODE":70.7502,"ARG_OF_PERICENTER":111.9137,"MEAN_ANOMALY":248.2848,"EPHEMERIS_TYPE":0,"CLASSIFICATION_TYPE":"U","NORAD_CAT_ID":61559,"ELEMENT_SET_NO":999,"REV_AT_EPOCH":8013,"BSTAR":0.00025853753,"MEAN_MOTION_DOT":2.72e-6,"MEAN_MOTION_DDOT":0},{"OBJECT_NAME":"QIANFAN-27","OBJECT_ID":"2024-185J","EPOCH":"2026-03-05T23:03:07.143840","MEAN_MOTION":14.27443336,"ECCENTRICITY":0.00086188,"INCLINATION":88.9749,"RA_OF_ASC_NODE":67.1677,"ARG_OF_PERICENTER":31.4225,"MEAN_ANOMALY":328.7482,"EPHEMERIS_TYPE":0,"CLASSIFICATION_TYPE":"U","NORAD_CAT_ID":61560,"ELEMENT_SET_NO":999,"REV_AT_EPOCH":8203,"BSTAR":0.00024609114,"MEAN_MOTION_DOT":6.18e-6,"MEAN_MOTION_DDOT":0},{"OBJECT_NAME":"QIANFAN-28","OBJECT_ID":"2024-185K","EPOCH":"2026-03-05T23:16:34.178592","MEAN_MOTION":14.28212819,"ECCENTRICITY":0.00082189,"INCLINATION":88.9764,"RA_OF_ASC_NODE":67.1738,"ARG_OF_PERICENTER":32.4783,"MEAN_ANOMALY":327.6916,"EPHEMERIS_TYPE":0,"CLASSIFICATION_TYPE":"U","NORAD_CAT_ID":61561,"ELEMENT_SET_NO":999,"REV_AT_EPOCH":8205,"BSTAR":0.0004135529,"MEAN_MOTION_DOT":1.044e-5,"MEAN_MOTION_DDOT":0},{"OBJECT_NAME":"QIANFAN-29","OBJECT_ID":"2024-185L","EPOCH":"2026-03-05T23:37:36.437664","MEAN_MOTION":13.51043697,"ECCENTRICITY":0.00104051,"INCLINATION":88.9718,"RA_OF_ASC_NODE":72.6917,"ARG_OF_PERICENTER":158.7282,"MEAN_ANOMALY":201.4304,"EPHEMERIS_TYPE":0,"CLASSIFICATION_TYPE":"U","NORAD_CAT_ID":61562,"ELEMENT_SET_NO":999,"REV_AT_EPOCH":7903,"BSTAR":0.00027350486,"MEAN_MOTION_DOT":1.89e-6,"MEAN_MOTION_DDOT":0},{"OBJECT_NAME":"QIANFAN-30","OBJECT_ID":"2024-185M","EPOCH":"2026-03-05T22:45:30.142656","MEAN_MOTION":13.50018762,"ECCENTRICITY":0.00086978,"INCLINATION":88.9738,"RA_OF_ASC_NODE":72.2528,"ARG_OF_PERICENTER":143.1556,"MEAN_ANOMALY":217.0193,"EPHEMERIS_TYPE":0,"CLASSIFICATION_TYPE":"U","NORAD_CAT_ID":61563,"ELEMENT_SET_NO":999,"REV_AT_EPOCH":7929,"BSTAR":0.0002755638,"MEAN_MOTION_DOT":1.87e-6,"MEAN_MOTION_DDOT":0},{"OBJECT_NAME":"QIANFAN-31","OBJECT_ID":"2024-185N","EPOCH":"2026-03-05T22:39:05.572800","MEAN_MOTION":13.58003122,"ECCENTRICITY":0.00083647,"INCLINATION":88.9723,"RA_OF_ASC_NODE":71.9226,"ARG_OF_PERICENTER":134.6909,"MEAN_ANOMALY":225.4929,"EPHEMERIS_TYPE":0,"CLASSIFICATION_TYPE":"U","NORAD_CAT_ID":61564,"ELEMENT_SET_NO":999,"REV_AT_EPOCH":7945,"BSTAR":0.00027953901,"MEAN_MOTION_DOT":2.14e-6,"MEAN_MOTION_DDOT":0},{"OBJECT_NAME":"QIANFAN-32","OBJECT_ID":"2024-185P","EPOCH":"2026-03-05T22:40:30.624096","MEAN_MOTION":13.50763985,"ECCENTRICITY":0.00097493,"INCLINATION":88.9782,"RA_OF_ASC_NODE":72.4128,"ARG_OF_PERICENTER":171.8012,"MEAN_ANOMALY":188.3301,"EPHEMERIS_TYPE":0,"CLASSIFICATION_TYPE":"U","NORAD_CAT_ID":61565,"ELEMENT_SET_NO":999,"REV_AT_EPOCH":7927,"BSTAR":0.00021073401,"MEAN_MOTION_DOT":1.48e-6,"MEAN_MOTION_DDOT":0},{"OBJECT_NAME":"QIANFAN-33","OBJECT_ID":"2024-185Q","EPOCH":"2026-03-05T22:39:17.701632","MEAN_MOTION":13.96623085,"ECCENTRICITY":0.00092887,"INCLINATION":88.9737,"RA_OF_ASC_NODE":69.5132,"ARG_OF_PERICENTER":72.8146,"MEAN_ANOMALY":287.4047,"EPHEMERIS_TYPE":0,"CLASSIFICATION_TYPE":"U","NORAD_CAT_ID":61566,"ELEMENT_SET_NO":999,"REV_AT_EPOCH":8077,"BSTAR":0.00033646368,"MEAN_MOTION_DOT":4.79e-6,"MEAN_MOTION_DDOT":0},{"OBJECT_NAME":"QIANFAN-34","OBJECT_ID":"2024-185R","EPOCH":"2026-03-05T23:54:25.483392","MEAN_MOTION":14.02383257,"ECCENTRICITY":0.00082971,"INCLINATION":88.9714,"RA_OF_ASC_NODE":68.9604,"ARG_OF_PERICENTER":76.2458,"MEAN_ANOMALY":283.9645,"EPHEMERIS_TYPE":0,"CLASSIFICATION_TYPE":"U","NORAD_CAT_ID":61567,"ELEMENT_SET_NO":999,"REV_AT_EPOCH":8102,"BSTAR":0.00033436374,"MEAN_MOTION_DOT":5.27e-6,"MEAN_MOTION_DDOT":0}]
